NORAD_CAT_ID,OBJECT_NAME,OBJECT_TYPE,EPOCH,MEAN_MOTION,ECCENTRICITY,INCLINATION,RA_OF_ASC_NODE,ARG_OF_PERICENTER,MEAN_ANOMALY,BSTAR,MEAN_MOTION_DOT,MEAN_MOTION_DDOT,TLE_LINE0,TLE_LINE1,TLE_LINE2,SEMIMAJOR_AXIS,PERIOD,APOGEE,PERIGEE,DECAYED
49156.0,STARLINK-3085,PAYLOAD,2022-02-09 22:00:00,15.69735939,0.0003955,70.0004,68.5851,294.5192,87.4821,4.4576e-05,5.11e-05,0.0,0 STARLINK-3085,1 49156U 21082AC  22040.91667824  .00005110  00000-0  44576-4 0  9996,2 49156  70.0004  68.5851 0003955 294.5192  87.4821 15.69735939 24536,6737.79,91.735,362.319,356.99,0.0
49156.0,STARLINK-3085,PAYLOAD,2022-02-10 14:00:01,15.69749863,0.0004246,69.9999,66.7113,298.6536,249.639,0.00025543,0.00030396,0.0,0 STARLINK-3085,1 49156U 21082AC  22041.58335648  .00030396  00000-0  25543-3 0  9992,2 49156  69.9999  66.7113 0004246 298.6536 249.6390 15.69749863  3685,6737.75,91.734,362.476,356.754,0.0
49156.0,STARLINK-3085,PAYLOAD,2022-02-10 22:00:00,15.69763686,0.0004026,70.0001,65.7743,293.8455,337.535,0.00026622,0.00031711,0.0,0 STARLINK-3085,1 49156U 21082AC  22041.91667824  .00031711  00000-0  26622-3 0  9994,2 49156  70.0001  65.7743 0004026 293.8455 337.5350 15.69763686 24688,6737.71,91.734,362.288,356.86300000000006,0.0
49156.0,STARLINK-3085,PAYLOAD,2022-02-11 14:00:01,15.69802405,0.0004084,70.0002,63.9,298.8721,138.8516,-0.00039367,-0.00047056,0.0,0 STARLINK-3085,1 49156U 21082AC  22042.58334491 -.00047056  00000-0 -39367-3 0  9990,2 49156  70.0002  63.9000 0004084 298.8721 138.8516 15.69802405  3697,6737.599,91.731,362.216,356.713,0.0
49156.0,STARLINK-3085,PAYLOAD,2022-02-11 22:00:01,15.69753417,0.000393,70.0001,62.9633,293.2666,227.6849,0.00021461,0.00025492,0.0,0 STARLINK-3085,1 49156U 21082AC  22042.91668981  .00025492  00000-0  21461-3 0  9995,2 49156  70.0001  62.9633 0003930 293.2666 227.6849 15.69753417 24847,6737.74,91.734,362.252,356.957,0.0
49156.0,STARLINK-3085,PAYLOAD,2022-02-12 06:00:00,15.69775781,0.0004108,70.0003,62.0265,294.6757,309.341,-0.00139,-0.00163175,0.0,0 STARLINK-3085,1 49156U 21082AC  22043.25001157 -.00163175  00000-0 -13900-2 0  9990,2 49156  70.0003  62.0265 0004108 294.6757 309.3410 15.69775781 24890,6737.676,91.733,362.3080000000001,356.773,0.0
49156.0,STARLINK-3085,PAYLOAD,2022-02-12 14:00:01,15.69659156,0.0004422,69.9996,61.0893,296.0533,31.0723,-1.9443e-05,-2.525e-05,0.0,0 STARLINK-3085,1 49156U 21082AC  22043.58334491 -.00002525  00000-0 -19443-4 0  9997,2 49156  69.9996  61.0893 0004422 296.0533  31.0723 15.69659156 24940,6738.009,91.74,362.854,356.895,0.0
49156.0,STARLINK-3085,PAYLOAD,2022-02-12 22:00:00,15.6961588,0.0004306,69.9996,60.1524,290.4351,119.7064,0.0009786,0.00117631,0.0,0 STARLINK-3085,1 49156U 21082AC  22043.91667824  .00117631  00000-0  97860-3 0  9994,2 49156  69.9996  60.1524 0004306 290.4351 119.7064 15.69615880  3695,6738.1330000000025,91.742,362.9,357.097,0.0
49156.0,STARLINK-3085,PAYLOAD,2022-02-13 06:00:00,15.69692089,0.0004417,69.9999,59.2154,292.4666,200.6913,0.00013983,0.00016477,0.0,0 STARLINK-3085,1 49156U 21082AC  22044.25001157  .00016477  00000-0  13983-3 0  9993,2 49156  69.9999  59.2154 0004417 292.4666 200.6913 15.69692089 25053,6737.915,91.738,362.756,356.80400000000014,0.0
49156.0,STARLINK-3085,PAYLOAD,2022-02-13 14:00:01,15.69737116,0.0004382,69.9995,58.2784,294.8529,281.3722,8.406e-05,9.831e-05,0.0,0 STARLINK-3085,1 49156U 21082AC  22044.58334491  .00009831  00000-0  84060-4 0  9990,2 49156  69.9995  58.2784 0004382 294.8529 281.3722 15.69737116  3693,6737.786,91.735,362.604,356.699,0.0
49156.0,STARLINK-3085,PAYLOAD,2022-02-14 04:00:00,15.69778108,0.0004285,70.0,56.6389,291.7377,339.91,-0.00011003,-0.00013345,0.0,0 STARLINK-3085,1 49156U 21082AC  22045.16667824 -.00013345  00000-0 -11003-3 0  9997,2 49156  70.0000  56.6389 0004285 291.7377 339.9100 15.69778108 25190,6737.669,91.733,362.421,356.647,0.0
49156.0,STARLINK-3085,PAYLOAD,2022-02-14 14:00:01,15.69827564,0.0004279,69.9991,55.4675,295.8957,169.6886,-0.00074026,-0.00087967,0.0,0 STARLINK-3085,1 49156U 21082AC  22045.58334491 -.00087967  00000-0 -74026-3 0  9999,2 49156  69.9991  55.4675 0004279 295.8957 169.6886 15.69827564  3694,6737.526999999999,91.73,362.275,356.509,0.0
49156.0,STARLINK-3085,PAYLOAD,2022-02-14 22:00:00,15.69715728,0.0004021,69.999,54.5305,290.349,258.4264,0.00081222,0.0009776,0.0,0 STARLINK-3085,1 49156U 21082AC  22045.91667824  .00097760  00000-0  81222-3 0  9991,2 49156  69.9990  54.5305 0004021 290.3490 258.4264 15.69715728  3695,6737.847,91.736,362.422,357.00300000000016,0.0
49156.0,STARLINK-3085,PAYLOAD,2022-02-15 06:00:00,15.69794206,0.0004034,69.9994,53.5931,293.905,337.9982,-0.00042444,-0.00050677,0.0,0 STARLINK-3085,1 49156U 21082AC  22046.25001157 -.00050677  00000-0 -42444-3 0  9991,2 49156  69.9994  53.5931 0004034 293.9050 337.9982 15.69794206 25364,6737.623000000001,91.732,362.206,356.77,0.0
49156.0,STARLINK-3085,PAYLOAD,2022-02-15 14:00:01,15.69760578,0.0003932,69.9992,52.65600000000001,297.046,58.0245,-9.7352e-05,-0.00011825,0.0,0 STARLINK-3085,1 49156U 21082AC  22046.58334491 -.00011825  00000-0 -97352-4 0  9998,2 49156  69.9992  52.6560 0003932 297.0460  58.0245 15.69760578  3685,6737.719,91.734,362.233,356.935,0.0
49156.0,STARLINK-3085,PAYLOAD,2022-02-15 22:00:01,15.69751764,0.0003807,69.9995,51.7191,291.3502,146.9208,2.3286e-05,2.569e-05,0.0,0 STARLINK-3085,1 49156U 21082AC  22046.91668981  .00002569  00000-0  23286-4 0  9997,2 49156  69.9995  51.7191 0003807 291.3502 146.9208 15.69751764 25477,6737.744000000002,91.734,362.174,357.0440000000001,0.0
49156.0,STARLINK-3085,PAYLOAD,2022-02-16 14:00:01,15.69767149,0.000413,69.999,49.845,294.0859,310.3598,-0.000172,-0.00020713,0.0,0 STARLINK-3085,1 49156U 21082AC  22047.58334491 -.00020713  00000-0 -17200-3 0  9998,2 49156  69.9990  49.8450 0004130 294.0859 310.3598 15.69767149  3685,6737.7,91.733,362.348,356.783,0.0
49156.0,STARLINK-3085,PAYLOAD,2022-02-16 22:00:00,15.69757445,0.0003951,69.9991,48.9078,288.9083,38.686,0.00043219,0.00051723,0.0,0 STARLINK-3085,1 49156U 21082AC  22047.91667824  .00051723  00000-0  43219-3 0  9996,2 49156  69.9991  48.9078 0003951 288.9083  38.6860 15.69757445  3694,6737.728,91.734,362.255,356.931,0.0
49156.0,STARLINK-3085,PAYLOAD,2022-02-17 06:00:00,15.69760482,0.0003935,69.9995,47.9706,292.6146,118.1578,-6.817799999999999e-06,-1.027e-05,0.0,0 STARLINK-3085,1 49156U 21082AC  22048.25001157 -.00001027  00000-0 -68178-5 0  9992,2 49156  69.9995  47.9706 0003935 292.6146 118.1578 15.69760482 25687,6737.719,91.734,362.236,356.93300000000005,0.0
49156.0,STARLINK-3085,PAYLOAD,2022-02-17 14:00:01,15.69819757,0.0003915,69.9993,47.0336,294.6008,199.2958,-0.00099837,-0.00118094,0.0,0 STARLINK-3085,1 49156U 21082AC  22048.58334491 -.00118094  00000-0 -99837-3 0  9995,2 49156  69.9993  47.0336 0003915 294.6008 199.2958 15.69819757  3691,6737.55,91.73,362.052,356.777,0.0
49156.0,STARLINK-3085,PAYLOAD,2022-02-17 22:00:00,15.69712381,0.0003983,69.9997,46.0967,287.6417,289.4092,0.00051319,0.00061413,0.0,0 STARLINK-3085,1 49156U 21082AC  22048.91667824  .00061413  00000-0  51319-3 0  9994,2 49156  69.9997  46.0967 0003983 287.6417 289.4092 15.69712381  3680,6737.857,91.737,362.406,357.038,0.0
49156.0,STARLINK-3085,PAYLOAD,2022-02-18 06:00:00,15.69724909,0.0004261,70.0,45.1597,290.5907,9.5786,-0.00042605,-0.00050727,0.0,0 STARLINK-3085,1 49156U 21082AC  22049.25001157 -.00050727  00000-0 -42605-3 0  9999,2 49156  70.0000  45.1597 0004261 290.5907   9.5786 15.69724909 25835,6737.821,91.736,362.557,356.815,0.0
49156.0,STARLINK-3085,PAYLOAD,2022-02-18 14:00:01,15.69732565,0.0003888,69.9997,44.2258,293.4525,89.7529,-0.00016532,-0.0001989,0.0,0 STARLINK-3085,1 49156U 21082AC  22049.58334491 -.00019890  00000-0 -16532-3 0  9991,2 49156  69.9997  44.2258 0003888 293.4525  89.7529 15.69732565  3695,6737.799,91.735,362.284,357.045,0.0
49156.0,STARLINK-3085,PAYLOAD,2022-02-18 22:00:00,15.69713956,0.000374,69.9999,43.2857,287.3794,178.9294,0.00065036,0.00078042,0.0,0 STARLINK-3085,1 49156U 21082AC  22049.91667824  .00078042  00000-0  65036-3 0  9992,2 49156  69.9999  43.2857 0003740 287.3794 178.9294 15.69713956 25943,6737.852,91.736,362.237,357.19699999999995,0.0
49156.0,STARLINK-3085,PAYLOAD,2022-02-19 12:00:02,15.69809525,0.000398,69.9999,41.646,292.5962,229.2694,-0.0006587,-0.00078323,0.0,0 STARLINK-3085,1 49156U 21082AC  22050.50002315 -.00078323  00000-0 -65870-3 0  9997,2 49156  69.9999  41.6460 0003980 292.5962 229.2694 15.69809525 26039,6737.579000000002,91.731,362.126,356.76199999999994,0.0
49156.0,STARLINK-3085,PAYLOAD,2022-02-19 14:00:01,15.69801335,0.0003903,70.0001,41.4124,291.0413,341.5551,-0.00071608,-0.00085029,0.0,0 STARLINK-3085,1 49156U 21082AC  22050.58334491 -.00085029  00000-0 -71608-3 0  9995,2 49156  70.0001  41.4124 0003903 291.0413 341.5551 15.69801335  3688,6737.602,91.731,362.097,356.838,0.0
49156.0,STARLINK-3085,PAYLOAD,2022-02-19 22:00:00,15.69762149,0.000386,70.0006,40.4749,286.3859,69.3519,4.2502e-05,4.867e-05,0.0,0 STARLINK-3085,1 49156U 21082AC  22050.91667824  .00004867  00000-0  42502-4 0  9992,2 49156  70.0006  40.4749 0003860 286.3859  69.3519 15.69762149  3675,6737.715,91.734,362.18,356.97900000000016,0.0
49156.0,STARLINK-3085,PAYLOAD,2022-02-20 06:00:00,15.69728756,0.0003862,70.0009,39.5379,290.5765,148.3227,0.00029211,0.00034777,0.0,0 STARLINK-3085,1 49156U 21082AC  22051.25001157  .00034777  00000-0  29211-3 0  9995,2 49156  70.0009  39.5379 0003862 290.5765 148.3227 15.69728756 26159,6737.81,91.736,362.277,357.0730000000001,0.0
49156.0,STARLINK-3085,PAYLOAD,2022-02-20 14:00:01,15.69470425,0.0004063,70.0004,38.612,288.7447,233.3454,0.0015185,0.00182973,0.0,0 STARLINK-3085,1 49156U 21082AC  22051.58334491  .00182973  00000-0  15185-2 0  9997,2 49156  70.0004  38.6120 0004063 288.7447 233.3454 15.69470425 26208,6738.549,91.751,363.152,357.677,0.0
